start=new Date('2023-03-23T00:00:00.000Z').valueOf();
sats=[{"TLE_LINE2":"2 48002  53.0524  85.6774 0001399 103.6000 256.5145 15.06399104111777","OBJECT_ID":"2021-024AB","LAUNCH_DATE":"2021-03-24","OBJECT_NAME":"STARLINK-2265","BSTAR":"0.00038298000000","COUNTRY_CODE":"US","OBJECT_TYPE":"PAYLOAD","NORAD_CAT_ID":"48002","SITE":"AFETR","SEMIMAJOR_AXIS":"6925.351","EPHEMERIS_TYPE":"0","ECCENTRICITY":"0.00013990","MEAN_ELEMENT_THEORY":"SGP4","PERIOD":"95.592","GP_ID":"228628871","TLE_LINE1":"1 48002U 21024AB  23081.25124807  .00005427  00000-0  38298-3 0  9997","REV_AT_EPOCH":"11177","RCS_SIZE":"LARGE","ARG_OF_PERICENTER":"103.6000","EPOCH":"2023-03-22T06:01:47.833248","MEAN_MOTION_DDOT":"0.0000000000000","DECAY_DATE":null,"TIME_SYSTEM":"UTC","INCLINATION":"53.0524","RA_OF_ASC_NODE":"85.6774","MEAN_MOTION_DOT":"0.00005427","APOAPSIS":"548.185","CENTER_NAME":"EARTH","FILE":"3867200","PERIAPSIS":"546.247","REF_FRAME":"TEME","MEAN_MOTION":"15.06399104","CLASSIFICATION_TYPE":"U","MEAN_ANOMALY":"256.5145","ELEMENT_SET_NO":"999"},{"PERIAPSIS":"546.369","FILE":"3867483","ELEMENT_SET_NO":"999","MEAN_ANOMALY":"285.0578","CLASSIFICATION_TYPE":"U","MEAN_MOTION":"15.06380188","REF_FRAME":"TEME","RA_OF_ASC_NODE":"159.2269","INCLINATION":"53.0534","TIME_SYSTEM":"UTC","CENTER_NAME":"EARTH","APOAPSIS":"548.179","MEAN_MOTION_DOT":"0.00032110","PERIOD":"95.593","MEAN_ELEMENT_THEORY":"SGP4","ECCENTRICITY":"0.00013070","DECAY_DATE":null,"MEAN_MOTION_DDOT":"0.0000000000000","EPOCH":"2023-03-22T12:05:59.241696","RCS_SIZE":"LARGE","ARG_OF_PERICENTER":"75.0556","REV_AT_EPOCH":"11076","GP_ID":"228635920","TLE_LINE1":"1 48003U 21024AC  23081.50415789  .00032110  00000-0  21659-2 0  9999","OBJECT_NAME":"STARLINK-2263","OBJECT_ID":"2021-024AC","LAUNCH_DATE":"2021-03-24","TLE_LINE2":"2 48003  53.0534 159.2269 0001307  75.0556 285.0578 15.06380188110760","EPHEMERIS_TYPE":"0","SITE":"AFETR","SEMIMAJOR_AXIS":"6925.409","NORAD_CAT_ID":"48003","OBJECT_TYPE":"PAYLOAD","BSTAR":"0.00216590000000","COUNTRY_CODE":"US"},{"OBJECT_NAME":"STARLINK-2254","TLE_LINE2":"2 48005  53.0529 129.9244 0001321 115.0111 245.1015 15.06392676111175","LAUNCH_DATE":"2021-03-24","OBJECT_ID":"2021-024AE","COUNTRY_CODE":"US","BSTAR":"0.00152830000000","OBJECT_TYPE":"PAYLOAD","NORAD_CAT_ID":"48005","SITE":"AFETR","SEMIMAJOR_AXIS":"6925.371","EPHEMERIS_TYPE":"0","MEAN_ELEMENT_THEORY":"SGP4","PERIOD":"95.593","ECCENTRICITY":"0.00013210","EPOCH":"2023-03-22T08:21:43.732512","DECAY_DATE":null,"MEAN_MOTION_DDOT":"0.0000000000000","TLE_LINE1":"1 48005U 21024AE  23081.34842283  .00022551  00000-0  15283-2 0  9990","GP_ID":"228635942","REV_AT_EPOCH":"11117","ARG_OF_PERICENTER":"115.0111","RCS_SIZE":"LARGE","INCLINATION":"53.0529","RA_OF_ASC_NODE":"129.9244","TIME_SYSTEM":"UTC","CENTER_NAME":"EARTH","MEAN_MOTION_DOT":"0.00022551","APOAPSIS":"548.151","PERIAPSIS":"546.321","FILE":"3867484","ELEMENT_SET_NO":"999","REF_FRAME":"TEME","MEAN_MOTION":"15.06392676","CLASSIFICATION_TYPE":"U","MEAN_ANOMALY":"245.1015"},{"OBJECT_TYPE":"PAYLOAD","BSTAR":"0.00085427000000","COUNTRY_CODE":"US","EPHEMERIS_TYPE":"0","SEMIMAJOR_AXIS":"6925.341","SITE":"AFETR","NORAD_CAT_ID":"48008","LAUNCH_DATE":"2021-03-24","OBJECT_ID":"2021-024AH","TLE_LINE2":"2 48008  53.0545  63.6329 0002033  80.4847 279.6372 15.06402482112127","OBJECT_NAME":"STARLINK-2271","GP_ID":"228641927","TLE_LINE1":"1 48008U 21024AH  23081.63544703  .00012466  00000-0  85427-3 0  9993","ARG_OF_PERICENTER":"80.4847","RCS_SIZE":"LARGE","REV_AT_EPOCH":"11212","EPOCH":"2023-03-22T15:15:02.623392","MEAN_MOTION_DDOT":"0.0000000000000","DECAY_DATE":null,"ECCENTRICITY":"0.00020330","MEAN_ELEMENT_THEORY":"SGP4","PERIOD":"95.592","APOAPSIS":"548.614","MEAN_MOTION_DOT":"0.00012466","CENTER_NAME":"EARTH","TIME_SYSTEM":"UTC","INCLINATION":"53.0545","RA_OF_ASC_NODE":"63.6329","CLASSIFICATION_TYPE":"U","MEAN_MOTION":"15.06402482","REF_FRAME":"TEME","MEAN_ANOMALY":"279.6372","ELEMENT_SET_NO":"999","FILE":"3867822","PERIAPSIS":"545.798"},{"RA_OF_ASC_NODE":"139.5657","INCLINATION":"53.0520","TIME_SYSTEM":"UTC","CENTER_NAME":"EARTH","MEAN_MOTION_DOT":"0.00024103","APOAPSIS":"548.371","PERIAPSIS":"546.209","FILE":"3867484","ELEMENT_SET_NO":"999","MEAN_ANOMALY":"285.2041","REF_FRAME":"TEME","MEAN_MOTION":"15.06375176","CLASSIFICATION_TYPE":"U","OBJECT_NAME":"STARLINK-2153","TLE_LINE2":"2 48009  53.0520 139.5657 0001561  74.9120 285.2041 15.06375176111040","OBJECT_ID":"2021-024AJ","LAUNCH_DATE":"2021-03-24","SITE":"AFETR","NORAD_CAT_ID":"48009","SEMIMAJOR_AXIS":"6925.425","EPHEMERIS_TYPE":"0","COUNTRY_CODE":"US","BSTAR":"0.00163260000000","OBJECT_TYPE":"PAYLOAD","PERIOD":"95.594","MEAN_ELEMENT_THEORY":"SGP4","ECCENTRICITY":"0.00015610","MEAN_MOTION_DDOT":"0.0000000000000","DECAY_DATE":null,"EPOCH":"2023-03-22T10:17:11.216256","REV_AT_EPOCH":"11104","ARG_OF_PERICENTER":"74.9120","RCS_SIZE":"LARGE","TLE_LINE1":"1 48009U 21024AJ  23081.42860204  .00024103  00000-0  16326-2 0  9990","GP_ID":"228635535"},{"CLASSIFICATION_TYPE":"U","REF_FRAME":"TEME","MEAN_MOTION":"15.06380682","MEAN_ANOMALY":"266.2402","ELEMENT_SET_NO":"999","FILE":"3867485","PERIAPSIS":"546.504","APOAPSIS":"548.041","MEAN_MOTION_DOT":"0.00018565","CENTER_NAME":"EARTH","TIME_SYSTEM":"UTC","INCLINATION":"53.0529","RA_OF_ASC_NODE":"159.5088","GP_ID":"228635954","TLE_LINE1":"1 48010U 21024AK  23081.44149870  .00018565  00000-0  12626-2 0  9997","RCS_SIZE":"LARGE","ARG_OF_PERICENTER":"93.8714","REV_AT_EPOCH":"11075","EPOCH":"2023-03-22T10:35:45.487680","DECAY_DATE":null,"MEAN_MOTION_DDOT":"0.0000000000000","ECCENTRICITY":"0.00011100","MEAN_ELEMENT_THEORY":"SGP4","PERIOD":"95.593","OBJECT_TYPE":"PAYLOAD","BSTAR":"0.00126260000000","COUNTRY_CODE":"US","EPHEMERIS_TYPE":"0","SEMIMAJOR_AXIS":"6925.408","SITE":"AFETR","NORAD_CAT_ID":"48010","OBJECT_ID":"2021-024AK","LAUNCH_DATE":"2021-03-24","TLE_LINE2":"2 48010  53.0529 159.5088 0001110  93.8714 266.2402 15.06380682110755","OBJECT_NAME":"STARLINK-2226"},{"SITE":"AFETR","SEMIMAJOR_AXIS":"6925.393","NORAD_CAT_ID":"48011","EPHEMERIS_TYPE":"0","BSTAR":"0.00187830000000","COUNTRY_CODE":"US","OBJECT_TYPE":"PAYLOAD","TLE_LINE2":"2 48011  53.0520 139.4054 0001238  87.3566 272.7565 15.06385552111058","OBJECT_ID":"2021-024AL","LAUNCH_DATE":"2021-03-24","OBJECT_NAME":"STARLINK-2272","REV_AT_EPOCH":"11105","ARG_OF_PERICENTER":"87.3566","RCS_SIZE":"LARGE","TLE_LINE1":"1 48011U 21024AL  23081.46452371  .00027796  00000-0  18783-2 0  9999","GP_ID":"228635553","DECAY_DATE":null,"MEAN_MOTION_DDOT":"0.0000000000000","EPOCH":"2023-03-22T11:08:54.848544","ECCENTRICITY":"0.00012380","PERIOD":"95.593","MEAN_ELEMENT_THEORY":"SGP4","MEAN_MOTION_DOT":"0.00027796","APOAPSIS":"548.115","CENTER_NAME":"EARTH","TIME_SYSTEM":"UTC","RA_OF_ASC_NODE":"139.4054","INCLINATION":"53.0520","MEAN_ANOMALY":"272.7565","REF_FRAME":"TEME","MEAN_MOTION":"15.06385552","CLASSIFICATION_TYPE":"U","ELEMENT_SET_NO":"999","FILE":"3867485","PERIAPSIS":"546.400"},{"INCLINATION":"53.0423","RA_OF_ASC_NODE":"347.7901","TIME_SYSTEM":"UTC","CENTER_NAME":"EARTH","APOAPSIS":"329.101","MEAN_MOTION_DOT":"0.00301972","PERIAPSIS":"321.434","FILE":"3867822","ELEMENT_SET_NO":"999","CLASSIFICATION_TYPE":"U","MEAN_MOTION":"15.81830074","REF_FRAME":"TEME","MEAN_ANOMALY":"34.4764","OBJECT_NAME":"STARLINK-2216","LAUNCH_DATE":"2021-03-24","OBJECT_ID":"2021-024AM","TLE_LINE2":"2 48012  53.0423 347.7901 0005719 171.2627  34.4764 15.81830074113227","OBJECT_TYPE":"PAYLOAD","COUNTRY_CODE":"US","BSTAR":"0.00141550000000","EPHEMERIS_TYPE":"0","SEMIMAJOR_AXIS":"6703.402","SITE":"AFETR","NORAD_CAT_ID":"48012","MEAN_ELEMENT_THEORY":"SGP4","PERIOD":"91.034","ECCENTRICITY":"0.00057190","EPOCH":"2023-03-22T22:00:00.999936","DECAY_DATE":null,"MEAN_MOTION_DDOT":"0.0000000000000","TLE_LINE1":"1 48012U 21024AM  23081.91667824  .00301972  00000-0  14155-2 0  9991","GP_ID":"228641433","ARG_OF_PERICENTER":"171.2627","RCS_SIZE":"LARGE","REV_AT_EPOCH":"11322"},{"NORAD_CAT_ID":"48013","SITE":"AFETR","SEMIMAJOR_AXIS":"6925.415","EPHEMERIS_TYPE":"0","BSTAR":"0.00119670000000","COUNTRY_CODE":"US","OBJECT_TYPE":"PAYLOAD","TLE_LINE2":"2 48013  53.0515 124.8986 0001441  79.3990 280.7161 15.06378270111245","LAUNCH_DATE":"2021-03-24","OBJECT_ID":"2021-024AN","OBJECT_NAME":"STARLINK-2243","REV_AT_EPOCH":"11124","RCS_SIZE":"LARGE","ARG_OF_PERICENTER":"79.3990","TLE_LINE1":"1 48013U 21024AN  23081.35441984  .00017578  00000-0  11967-2 0  9991","GP_ID":"228635558","MEAN_MOTION_DDOT":"0.0000000000000","DECAY_DATE":null,"EPOCH":"2023-03-22T08:30:21.874176","ECCENTRICITY":"0.00014410","PERIOD":"95.594","MEAN_ELEMENT_THEORY":"SGP4","MEAN_MOTION_DOT":"0.00017578","APOAPSIS":"548.278","CENTER_NAME":"EARTH","TIME_SYSTEM":"UTC","RA_OF_ASC_NODE":"124.8986","INCLINATION":"53.0515","MEAN_ANOMALY":"280.7161","MEAN_MOTION":"15.06378270","REF_FRAME":"TEME","CLASSIFICATION_TYPE":"U","ELEMENT_SET_NO":"999","FILE":"3867485","PERIAPSIS":"546.282"},{"TLE_LINE2":"2 48014  53.0526  90.5803 0001706 115.7009 244.4156 15.06381229111705","LAUNCH_DATE":"2021-03-24","OBJECT_ID":"2021-024AP","OBJECT_NAME":"STARLINK-2283","SITE":"AFETR","SEMIMAJOR_AXIS":"6925.406","NORAD_CAT_ID":"48014","EPHEMERIS_TYPE":"0","COUNTRY_CODE":"US","BSTAR":"0.00098555000000","OBJECT_TYPE":"PAYLOAD","ECCENTRICITY":"0.00017060","PERIOD":"95.593","MEAN_ELEMENT_THEORY":"SGP4","REV_AT_EPOCH":"11170","ARG_OF_PERICENTER":"115.7009","RCS_SIZE":"LARGE","GP_ID":"228628901","TLE_LINE1":"1 48014U 21024AP  23081.23786614  .00014421  00000-0  98555-3 0  9994","MEAN_MOTION_DDOT":"0.0000000000000","DECAY_DATE":null,"EPOCH":"2023-03-22T05:42:31.634496","TIME_SYSTEM":"UTC","RA_OF_ASC_NODE":"90.5803","INCLINATION":"53.0526","MEAN_MOTION_DOT":"0.00014421","APOAPSIS":"548.453","CENTER_NAME":"EARTH","FILE":"3867171","PERIAPSIS":"546.090","MEAN_ANOMALY":"244.4156","REF_FRAME":"TEME","MEAN_MOTION":"15.06381229","CLASSIFICATION_TYPE":"U","ELEMENT_SET_NO":"999"}];
